STARLINK-30269
1 57528U 23115H   26061.16668981  .01074961  00000+0  43084-1 0  9996
2 57528  43.0010  44.3560 0001340 275.2338 232.5847 15.21733896  5828
STARLINK-30381
1 57785U 23134Q   26061.16668981  .01009248  00000+0  40091-1 0  9993
2 57785  43.0002 236.7889 0001428 283.9957 204.7746 15.21757279  5623
STARLINK-30584
1 58089U 23160Q   26061.16668981  .02183801  00000+0  85917-1 0  9995
2 58089  43.0007 120.1806 0001737 225.5266 270.2517 15.21703345  5718
STARLINK-31087
1 58597U 23200J   26061.16668981  .01186764  00000+0  47218-1 0  9996
2 58597  43.0005 210.6188 0001507 272.2680 270.5684 15.21704733  5666
